RAVAN                   
1 41849U 16067B   22329.88030621  .00004890  00000+0  37702-3 0  9994
2 41849  98.0133 111.7876 0017329 151.7504 208.4663 15.01988246330210
CELTEE 1                
1 41850U 16067C   22329.87677913  .00002816  00000+0  23579-3 0  9999
2 41850  98.0229 106.2455 0009146 141.5890 218.5984 14.99278230329939
OPTICUBE 04             
1 41851U 16067D   22329.60838186  .00001836  00000+0  15942-3 0  9998
2 41851  98.0204 104.7940 0009175 152.4155 207.7555 14.98316026329830
AEROCUBE 8D             
1 41852U 16067E   22329.93944606  .00003255  00000+0  27161-3 0  9993
2 41852  98.0199 105.2974 0009828 145.6793 214.5066 14.99284572329883
AEROCUBE 8C             
1 41853U 16067F   22329.85693054  .00003057  00000+0  25561-3 0  9995
2 41853  98.0152 105.0150 0011337 155.1863 204.9906 14.99237060329863
PROMETHEUS 2-1          
1 41854U 16067G   22330.07555387  .00005462  00000+0  43100-3 0  9999
2 41854  98.0339 106.7494 0016815 170.6031 189.5510 15.01058050329970
PROMETHEUS 2-3          
1 41855U 16067H   22329.66664951  .00005411  00000+0  42744-3 0  9998
2 41855  98.0322 106.3820 0012935 190.4524 169.6432 15.01060874329911
INS-1B                  
1 41954U 17008G   22329.73514682  .00017846  00000+0  50128-3 0  9997
2 41954  97.2364  26.5704 0007120  29.2321 330.9321 15.36563541321465
BGUSAT                  
1 41999U 17008BD  22329.71201114  .00078557  00000+0  11168-2 0  9993
2 41999  97.2616  40.7113 0002653  12.5851 347.5469 15.56118610321568
DIDO-2                  
1 42000U 17008BE  22329.67530680  .00007610  00000+0  25523-3 0  9998
2 42000  97.2362  24.9611 0008235  53.6492 306.5509 15.31139089320718
PEASSS                  
1 42015U 17008BV  22329.70903357  .00015567  00000+0  44571-3 0  9997
2 42015  97.2428  29.8507 0005637  48.1789 311.9936 15.36004052321481
AL-FARABI 1             
1 42016U 17008BW  22329.73369842  .00024292  00000+0  59041-3 0  9999
2 42016  97.2499  33.9096 0004534  45.2194 314.9421 15.40971635321827
NAYIF-1 (EO-88)         
1 42017U 17008BX  22329.66519161  .00024697  00000+0  59527-3 0  9991
2 42017  97.2488  33.8792 0004675  42.8297 317.3314 15.41220851321849
UCLSAT                  
1 42765U 17036A   22329.62985926  .00015527  00000+0  46991-3 0  9997
2 42765  97.1768   7.4892 0010302 103.8253 256.4137 15.34217874302524
LITUANICASAT-2          
1 42768U 17036D   22329.61568009  .00051825  00000+0  10303-2 0  9996
2 42768  97.1829  12.3193 0009764  84.8991 275.3374 15.46744554302055
AALTO-1                 
1 42775U 17036L   22329.60636948  .00007508  00000+0  27591-3 0  9998
2 42775  97.1789   1.3995 0013546 111.1573 249.1116 15.28096988301366
URSA MAIOR              
1 42776U 17036M   22329.64770344  .00009008  00000+0  32224-3 0  9998
2 42776  97.1805   2.3543 0013210 109.2630 251.0041 15.28929388301410
COMPASS 2               
1 42777U 17036N   22330.11534030  .00029237  00000+0  74004-3 0  9991
2 42777  97.1827  11.0834 0010141  89.8399 270.4010 15.39655135301958
DIAMOND RED             
1 42783U 17036U   22329.66455637  .00010118  00000+0  34403-3 0  9998
2 42783  97.1802   5.0392 0011485 111.6716 248.5749 15.30574269301571
PEGASUS                 
1 42784U 17036V   22329.66160296  .00013924  00000+0  43935-3 0  9991
2 42784  97.1793   6.5833 0011000 107.9436 252.3007 15.32905540301670
DIAMOND GREEN           
1 42785U 17036W   22329.33673287  .00008095  00000+0  27510-3 0  9999
2 42785  97.1806   4.7909 0011254 114.3558 245.8860 15.30658287301594
DIAMOND BLUE            
1 42786U 17036X   22329.66322545  .00010583  00000+0  35902-3 0  9993
2 42786  97.1804   5.0979 0011357 113.1740 247.0699 15.30636315301646
NUDTSAT                 
1 42787U 17036Y   22329.90788816  .00025937  00000+0  61973-3 0  9994
2 42787  97.1808  12.4455 0008913  92.7196 267.5059 15.41444070301894
SUCHAI                  
1 42788U 17036Z   22329.62245827  .00018304  00000+0  52631-3 0  9995
2 42788  97.1790   8.7065 0010177 101.6307 258.6080 15.35799410301876
SKCUBE                  
1 42789U 17036AA  22329.85182108  .00015988  00000+0  47979-3 0  9997
2 42789  97.1790   8.1632 0010344 102.3007 257.9395 15.34479114301788
VZLUSAT-1               
1 42790U 17036AB  22329.61389732  .00029548  00000+0  71390-3 0  9996
2 42790  97.1803  12.0756 0008742  93.9117 266.3130 15.41083314301997
ROBUSTA 1B              
1 42792U 17036AD  22329.67156526  .00017518  00000+0  51063-3 0  9996
2 42792  97.1787   8.7062 0009859 102.3358 257.8990 15.35382343301811
CICERO 6                
1 42793U 17036AE  22329.83596724  .00008806  00000+0  30331-3 0  9998
2 42793  97.1781   5.6648 0010148 110.8407 249.3922 15.30206744301720
CORVUS BC2              
1 42846U 17042X   22330.06023427  .00001618  00000+0  15901-3 0  9996
2 42846  97.4012 178.0952 0009456 165.7590 194.3899 14.93383050292392
CORVUS BC1              
1 42847U 17042Y   22329.86251689  .00001621  00000+0  15906-3 0  9995
2 42847  97.4013 178.2400 0009166 164.9985 195.1509 14.93460274292370
MIRATA                  
1 43015U 17073C   22329.66439981  .00009057  00000+0  63164-3 0  9998
2 43015  97.6545 219.0338 0231540  10.5815 350.0153 14.86385416271195
MAKERSAT 0              
1 43016U 17073D   22329.64238290  .00006724  00000+0  48569-3 0  9997
2 43016  97.6556 218.1454 0240882  16.5237 344.3655 14.83933235271086
CORVUS BC3              
1 43118U 18004H   22329.94151469  .00009775  00000+0  33811-3 0  9993
2 43118  97.3475  40.6762 0009597 143.3440 216.8459 15.30051945270881
MICROMAS-2A             
1 43131U 18004W   22329.79864106  .00041189  00000+0  83309-3 0  9992
2 43131  97.3622  50.2764 0005555 127.0236 233.1522 15.46329501271417
SPACEBEE-4              
1 43139U 18004AE  22329.95911489  .00327379  00000+0  17746-2 0  9994
2 43139  97.3662  59.1774 0002218 253.9580 106.1443 15.79156653271932
CICERO 7                
1 43143U 18004AJ  22329.76671384  .00015166  00000+0  39253-3 0  9991
2 43143  97.3620  48.7091 0006235 133.3009 226.8757 15.39143487271336
GOMX-4B                 
1 43196U 18015E   22329.90370689  .00007570  00000+0  26711-3 0  9996
2 43196  97.5552 111.2573 0016035 203.5637 156.4870 15.29422095267813
GOMX-4A                 
1 43197U 18015F   22330.14592706  .00007567  00000+0  25047-3 0  9998
2 43197  97.5539 112.7681 0015707 200.8869 262.7425 15.31503885267948
AEROCUBE 12A            
1 43556U 18046C   22329.69473533  .00034134  00000+0  66464-3 0  9993
2 43556  51.6337 113.9784 0007805 259.0571 100.9538 15.47204785244203
AEROCUBE 12B            
1 43557U 18046D   22329.78488500  .00021809  00000+0  48951-3 0  9990
2 43557  51.6349 121.2348 0007650 253.0813 106.9334 15.43282825244067
SURFSAT                 
1 43614U 18070B   22329.78409852  .00116017  00000+0  78168-3 0  9993
2 43614  93.0009 167.7680 0009010  82.8257 277.4041 15.74744645236258
CP7 (DAVE)              
1 43615U 18070C   22329.57313313  .00090016  00000+0  73147-3 0  9999
2 43615  93.0006 167.2829 0009888  89.4216 270.8188 15.70369576236157
CUBEBEL-1 (BSUSAT-1)    
1 43666U 18083E   22330.04561784  .00010054  00000+0  38647-3 0  9990
2 43666  97.4072 357.1027 0013834 119.4711 325.0351 15.26525556226106
CICERO 10               
1 43690U 18088A   22329.67755277  .00011134  00000+0  40779-3 0  9990
2 43690  85.0378 209.1291 0009902 273.7364  86.2748 15.27835423224341
IRVINE01                
1 43693U 18088D   22329.63875334  .00109208  00000+0  14670-2 0  9996
2 43693  85.0225 200.3760 0003318 166.6502 193.4848 15.57532703225103
PROXIMA I               
1 43694U 18088E   22329.65506997  .00009196  00000+0  31856-3 0  9996
2 43694  85.0310 205.4193 0013105 232.8585 127.1465 15.29601889224588
PROXIMA II              
1 43696U 18088G   22329.72384423  .00009324  00000+0  32343-3 0  9999
2 43696  85.0310 205.4002 0013207 232.4471 127.5576 15.29556092224584
FACSAT-1                
1 43721U 18096C   22330.09802161  .00022216  00000+0  48500-3 0  9990
2 43721  97.3392  50.3923 0012032 185.5301 259.0557 15.44144173222840
CENTAURI-2              
1 43722U 18096D   22329.72820021  .00057014  00000+0  95968-3 0  9998
2 43722  97.3433  53.2407 0010304 183.7956 176.3220 15.51478513222969
INNOSAT-2               
1 43738U 18096V   22330.33314668  .00684221  20299-3  16646-2 0  9996
2 43738  97.3486  65.4918 0007143 242.6567 188.8121 15.96232731223773
SIRION PATHFINDER-2     
1 43759U 18099B   22330.17134060  .00001581  00000+0  14209-3 0  9990
2 43759  97.6018  32.6030 0014933  80.1347 280.1561 14.96983866217236
CORVUS BC4              
1 43767U 18099K   22329.72189300  .00002214  00000+0  20012-3 0  9998
2 43767  97.5976  30.4351 0012973  87.9346 272.3361 14.96396887217080
MOVE-II                 
1 43780U 18099Y   22329.69401347  .00003704  00000+0  30805-3 0  9993
2 43780  97.6072  33.3597 0012905  86.7014 273.5685 14.99236851217204
SPACEBEE-7              
1 43816U 18099BL  22329.97041557  .00003158  00000+0  26604-3 0  9992
2 43816  97.6082  34.3416 0012918  72.2554 288.0078 14.98847124216834
SPACEBEE-5              
1 43817U 18099BM  22329.95945171  .00011184  00000+0  80045-3 0  9993
2 43817  97.6174  38.4635 0005828  73.3095 286.8771 15.04576477217025
SPACEBEE-6              
1 43818U 18099BN  22330.12599691  .00005531  00000+0  44303-3 0  9993
2 43818  97.6104  35.7426 0016796  77.6273 282.6830 15.00433614217063
SHIELDS 1               
1 43850U 18104B   22329.42632831  .00003541  00000+0  14049-3 0  9994
2 43850  85.0254 305.3098 0015342  40.7805 319.4584 15.24873720219020
STF-1                   
1 43852U 18104D   22329.94325349  .00013593  00000+0  46142-3 0  9993
2 43852  85.0274 304.6657 0014250  50.6051 309.6454 15.30274707219201
ZACUBE-2                
1 43907U 18111AH  22330.17702972  .00008298  00000+0  28120-3 0  9992
2 43907  97.1658 210.7773 0016912 219.8277 304.3055 15.30665755218007
